CCSDS_OMM_VERS = 2.0
CREATION_DATE  = 
ORIGINATOR     = 

OBJECT_NAME    = SL-16 R/B
OBJECT_ID      = 1993-016B
CENTER_NAME    = EARTH
REF_FRAME      = TEME
TIME_SYSTEM    = UTC
MEAN_ELEMENT_THEORY = SGP/SGP4

EPOCH          = 2026-02-27T12:45:42.454368
MEAN_MOTION    = 14.15302220
ECCENTRICITY   = .0011097
INCLINATION    = 71.0050
RA_OF_ASC_NODE = 236.5166
ARG_OF_PERICENTER = 328.3925
MEAN_ANOMALY   = 31.6530

EPHEMERIS_TYPE = 0
CLASSIFICATION_TYPE = U
NORAD_CAT_ID   = 22566
ELEMENT_SET_NO = 999
REV_AT_EPOCH   = 70073
BSTAR          = .17347E-3
MEAN_MOTION_DOT = .29E-5
MEAN_MOTION_DDOT = 0

CCSDS_OMM_VERS = 2.0
CREATION_DATE  = 
ORIGINATOR     = 

OBJECT_NAME    = COSMOS 2242
OBJECT_ID      = 1993-024A
CENTER_NAME    = EARTH
REF_FRAME      = TEME
TIME_SYSTEM    = UTC
MEAN_ELEMENT_THEORY = SGP/SGP4

EPOCH          = 2026-02-27T12:56:59.888256
MEAN_MOTION    = 14.96501052
ECCENTRICITY   = .0015972
INCLINATION    = 82.5162
RA_OF_ASC_NODE = 276.4272
ARG_OF_PERICENTER = 344.9738
MEAN_ANOMALY   = 15.1007

EPHEMERIS_TYPE = 0
CLASSIFICATION_TYPE = U
NORAD_CAT_ID   = 22626
ELEMENT_SET_NO = 999
REV_AT_EPOCH   = 77887
BSTAR          = .1645E-3
MEAN_MOTION_DOT = .1898E-4
MEAN_MOTION_DDOT = 0

CCSDS_OMM_VERS = 2.0
CREATION_DATE  = 
ORIGINATOR     = 

OBJECT_NAME    = SL-16 R/B
OBJECT_ID      = 1993-059B
CENTER_NAME    = EARTH
REF_FRAME      = TEME
TIME_SYSTEM    = UTC
MEAN_ELEMENT_THEORY = SGP/SGP4

EPOCH          = 2026-02-27T15:59:12.349824
MEAN_MOTION    = 14.17230594
ECCENTRICITY   = .0018925
INCLINATION    = 70.9910
RA_OF_ASC_NODE = 32.2628
ARG_OF_PERICENTER = 230.4406
MEAN_ANOMALY   = 129.5046

EPHEMERIS_TYPE = 0
CLASSIFICATION_TYPE = U
NORAD_CAT_ID   = 22803
ELEMENT_SET_NO = 999
REV_AT_EPOCH   = 67811
BSTAR          = .14395E-3
MEAN_MOTION_DOT = .243E-5
MEAN_MOTION_DDOT = 0

CCSDS_OMM_VERS = 2.0
CREATION_DATE  = 
ORIGINATOR     = 

OBJECT_NAME    = ARIANE 40 R/B
OBJECT_ID      = 1993-061H
CENTER_NAME    = EARTH
REF_FRAME      = TEME
TIME_SYSTEM    = UTC
MEAN_ELEMENT_THEORY = SGP/SGP4

EPOCH          = 2026-02-27T10:24:11.984256
MEAN_MOTION    = 14.32854737
ECCENTRICITY   = .0009767
INCLINATION    = 98.4939
RA_OF_ASC_NODE = 127.5225
ARG_OF_PERICENTER = 318.9748
MEAN_ANOMALY   = 41.0701

EPHEMERIS_TYPE = 0
CLASSIFICATION_TYPE = U
NORAD_CAT_ID   = 22830
ELEMENT_SET_NO = 999
REV_AT_EPOCH   = 69263
BSTAR          = .95176E-4
MEAN_MOTION_DOT = .217E-5
MEAN_MOTION_DDOT = 0

CCSDS_OMM_VERS = 2.0
CREATION_DATE  = 
ORIGINATOR     = 

OBJECT_NAME    = COSMOS 2278
OBJECT_ID      = 1994-023A
CENTER_NAME    = EARTH
REF_FRAME      = TEME
TIME_SYSTEM    = UTC
MEAN_ELEMENT_THEORY = SGP/SGP4

EPOCH          = 2026-02-27T11:37:16.569984
MEAN_MOTION    = 14.14372170
ECCENTRICITY   = .0007478
INCLINATION    = 71.0533
RA_OF_ASC_NODE = 196.4468
ARG_OF_PERICENTER = 34.0208
MEAN_ANOMALY   = 326.1392

EPHEMERIS_TYPE = 0
CLASSIFICATION_TYPE = U
NORAD_CAT_ID   = 23087
ELEMENT_SET_NO = 999
REV_AT_EPOCH   = 64336
BSTAR          = .22934E-3
MEAN_MOTION_DOT = .392E-5
MEAN_MOTION_DDOT = 0

CCSDS_OMM_VERS = 2.0
CREATION_DATE  = 
ORIGINATOR     = 

OBJECT_NAME    = SL-16 R/B
OBJECT_ID      = 1994-023B
CENTER_NAME    = EARTH
REF_FRAME      = TEME
TIME_SYSTEM    = UTC
MEAN_ELEMENT_THEORY = SGP/SGP4

EPOCH          = 2026-02-27T12:50:48.941088
MEAN_MOTION    = 14.15013257
ECCENTRICITY   = .000542
INCLINATION    = 70.9988
RA_OF_ASC_NODE = 92.2142
ARG_OF_PERICENTER = 295.4375
MEAN_ANOMALY   = 64.6186

EPHEMERIS_TYPE = 0
CLASSIFICATION_TYPE = U
NORAD_CAT_ID   = 23088
ELEMENT_SET_NO = 999
REV_AT_EPOCH   = 64465
BSTAR          = .34551E-4
MEAN_MOTION_DOT = .19E-6
MEAN_MOTION_DDOT = 0

CCSDS_OMM_VERS = 2.0
CREATION_DATE  = 
ORIGINATOR     = 

OBJECT_NAME    = SL-16 R/B
OBJECT_ID      = 1994-074B
CENTER_NAME    = EARTH
REF_FRAME      = TEME
TIME_SYSTEM    = UTC
MEAN_ELEMENT_THEORY = SGP/SGP4

EPOCH          = 2026-02-27T12:36:48.081600
MEAN_MOTION    = 14.79394097
ECCENTRICITY   = .0005181
INCLINATION    = 97.7123
RA_OF_ASC_NODE = 89.7543
ARG_OF_PERICENTER = 250.1156
MEAN_ANOMALY   = 239.4709

EPHEMERIS_TYPE = 0
CLASSIFICATION_TYPE = U
NORAD_CAT_ID   = 23343
ELEMENT_SET_NO = 999
REV_AT_EPOCH   = 68574
BSTAR          = .75429E-4
MEAN_MOTION_DOT = .513E-5
MEAN_MOTION_DDOT = 0

CCSDS_OMM_VERS = 2.0
CREATION_DATE  = 
ORIGINATOR     = 

OBJECT_NAME    = SL-16 R/B
OBJECT_ID      = 1994-077B
CENTER_NAME    = EARTH
REF_FRAME      = TEME
TIME_SYSTEM    = UTC
MEAN_ELEMENT_THEORY = SGP/SGP4

EPOCH          = 2026-02-27T07:24:45.568800
MEAN_MOTION    = 14.15563623
ECCENTRICITY   = .0003622
INCLINATION    = 70.9848
RA_OF_ASC_NODE = 14.3262
ARG_OF_PERICENTER = 224.9670
MEAN_ANOMALY   = 135.1160

EPHEMERIS_TYPE = 0
CLASSIFICATION_TYPE = U
NORAD_CAT_ID   = 23405
ELEMENT_SET_NO = 999
REV_AT_EPOCH   = 61476
BSTAR          = -.6899E-4
MEAN_MOTION_DOT = -.183E-5
MEAN_MOTION_DDOT = 0

CCSDS_OMM_VERS = 2.0
CREATION_DATE  = 
ORIGINATOR     = 

OBJECT_NAME    = ARIANE 40+ R/B
OBJECT_ID      = 1995-021B
CENTER_NAME    = EARTH
REF_FRAME      = TEME
TIME_SYSTEM    = UTC
MEAN_ELEMENT_THEORY = SGP/SGP4

EPOCH          = 2026-02-27T10:51:08.436672
MEAN_MOTION    = 14.39763900
ECCENTRICITY   = .0007185
INCLINATION    = 98.4519
RA_OF_ASC_NODE = 130.0724
ARG_OF_PERICENTER = 163.8752
MEAN_ANOMALY   = 206.7087

EPHEMERIS_TYPE = 0
CLASSIFICATION_TYPE = U
NORAD_CAT_ID   = 23561
ELEMENT_SET_NO = 999
REV_AT_EPOCH   = 61777
BSTAR          = .11099E-3
MEAN_MOTION_DOT = .304E-5
MEAN_MOTION_DDOT = 0

CCSDS_OMM_VERS = 2.0
CREATION_DATE  = 
ORIGINATOR     = 

OBJECT_NAME    = SL-16 R/B
OBJECT_ID      = 1995-058B
CENTER_NAME    = EARTH
REF_FRAME      = TEME
TIME_SYSTEM    = UTC
MEAN_ELEMENT_THEORY = SGP/SGP4

EPOCH          = 2026-02-27T16:02:53.699712
MEAN_MOTION    = 14.15493141
ECCENTRICITY   = .00111
INCLINATION    = 71.0207
RA_OF_ASC_NODE = 201.2920
ARG_OF_PERICENTER = 143.5640
MEAN_ANOMALY   = 216.6240

EPHEMERIS_TYPE = 0
CLASSIFICATION_TYPE = U
NORAD_CAT_ID   = 23705
ELEMENT_SET_NO = 999
REV_AT_EPOCH   = 56643
BSTAR          = -.79296E-4
MEAN_MOTION_DOT = -.203E-5
MEAN_MOTION_DDOT = 0

CCSDS_OMM_VERS = 2.0
CREATION_DATE  = 
ORIGINATOR     = 

OBJECT_NAME    = SL-16 R/B
OBJECT_ID      = 1996-051B
CENTER_NAME    = EARTH
REF_FRAME      = TEME
TIME_SYSTEM    = UTC
MEAN_ELEMENT_THEORY = SGP/SGP4

EPOCH          = 2026-02-27T16:25:36.310656
MEAN_MOTION    = 14.12412654
ECCENTRICITY   = .001598
INCLINATION    = 70.7590
RA_OF_ASC_NODE = 196.4145
ARG_OF_PERICENTER = 162.6440
MEAN_ANOMALY   = 197.5229

EPHEMERIS_TYPE = 0
CLASSIFICATION_TYPE = U
NORAD_CAT_ID   = 24298
ELEMENT_SET_NO = 999
REV_AT_EPOCH   = 52023
BSTAR          = .69498E-4
MEAN_MOTION_DOT = .79E-6
MEAN_MOTION_DDOT = 0

CCSDS_OMM_VERS = 2.0
CREATION_DATE  = 
ORIGINATOR     = 

OBJECT_NAME    = ORBVIEW 2 (SEASTAR)
OBJECT_ID      = 1997-037A
CENTER_NAME    = EARTH
REF_FRAME      = TEME
TIME_SYSTEM    = UTC
MEAN_ELEMENT_THEORY = SGP/SGP4

EPOCH          = 2026-02-27T10:48:40.214880
MEAN_MOTION    = 14.35485536
ECCENTRICITY   = .0003218
INCLINATION    = 98.8550
RA_OF_ASC_NODE = 222.4921
ARG_OF_PERICENTER = 92.7526
MEAN_ANOMALY   = 267.4027

EPHEMERIS_TYPE = 0
CLASSIFICATION_TYPE = U
NORAD_CAT_ID   = 24883
ELEMENT_SET_NO = 999
REV_AT_EPOCH   = 50700
BSTAR          = .12399E-3
MEAN_MOTION_DOT = .31E-5
MEAN_MOTION_DDOT = 0

