SL-16 R/B               
1 22566U 93016B   26058.53174137  .00000290  00000+0  17347-3 0  9997
2 22566  71.0050 236.5166 0011097 328.3925  31.6530 14.15302220700730
COSMOS 2242             
1 22626U 93024A   26058.53958204  .00001898  00000+0  16450-3 0  9997
2 22626  82.5162 276.4272 0015972 344.9738  15.1007 14.96501052778870
SL-16 R/B               
1 22803U 93059B   26058.66611516  .00000243  00000+0  14395-3 0  9997
2 22803  70.9910  32.2628 0018925 230.4406 129.5046 14.17230594678116
ARIANE 40 R/B           
1 22830U 93061H   26058.43347204  .00000217  00000+0  95176-4 0  9993
2 22830  98.4939 127.5225 0009767 318.9748  41.0701 14.32854737692635
COSMOS 2278             
1 23087U 94023A   26058.48421956  .00000392  00000+0  22934-3 0  9994
2 23087  71.0533 196.4468 0007478  34.0208 326.1392 14.14372170643360
SL-16 R/B               
1 23088U 94023B   26058.53528867  .00000019  00000+0  34551-4 0  9995
2 23088  70.9988  92.2142 0005420 295.4375  64.6186 14.15013257644655
SL-16 R/B               
1 23343U 94074B   26058.52555650  .00000513  00000+0  75429-4 0  9992
2 23343  97.7123  89.7543 0005181 250.1156 239.4709 14.79394097685744
SL-16 R/B               
1 23405U 94077B   26058.30886075 -.00000183  00000+0 -68990-4 0  9998
2 23405  70.9848  14.3262 0003622 224.9670 135.1160 14.15563623614760
ARIANE 40+ R/B          
1 23561U 95021B   26058.45218098  .00000304  00000+0  11099-3 0  9991
2 23561  98.4519 130.0724 0007185 163.8752 206.7087 14.39763900617775
SL-16 R/B               
1 23705U 95058B   26058.66867708 -.00000203  00000+0 -79296-4 0  9996
2 23705  71.0207 201.2920 0011100 143.5640 216.6240 14.15493141566436
SL-16 R/B               
1 24298U 96051B   26058.68444804  .00000079  00000+0  69498-4 0  9990
2 24298  70.7590 196.4145 0015980 162.6440 197.5229 14.12412654520238
ORBVIEW 2 (SEASTAR)     
1 24883U 97037A   26058.45046545  .00000310  00000+0  12399-3 0  9995
2 24883  98.8550 222.4921 0003218  92.7526 267.4027 14.35485536507003
